start=new Date('2023-02-04T00:00:00.000Z').valueOf();
sats=[{"MEAN_ANOMALY":"268.1467","CLASSIFICATION_TYPE":"U","DECAY_DATE":null,"RCS_SIZE":"LARGE","MEAN_MOTION_DOT":"0.00000636","TLE_LINE2":"2 45713  53.0566  90.0328 0001364  91.9678 268.1467 15.06403878148125","SEMIMAJOR_AXIS":"6925.337","ELEMENT_SET_NO":"999","FILE":"3770129","RA_OF_ASC_NODE":"90.0328","PERIOD":"95.592","APOAPSIS":"548.146","OBJECT_NAME":"STARLINK-1436","REF_FRAME":"TEME","EPHEMERIS_TYPE":"0","TLE_LINE1":"1 45713U 20035BJ  23034.54528520  .00000636  00000-0  61594-4 0  9997","PERIAPSIS":"546.257","CENTER_NAME":"EARTH","MEAN_MOTION_DDOT":"0.0000000000000","MEAN_MOTION":"15.06403878","COUNTRY_CODE":"US","EPOCH":"2023-02-03T13:05:12.641280","GP_ID":"224284555","SITE":"AFETR","MEAN_ELEMENT_THEORY":"SGP4","INCLINATION":"53.0566","BSTAR":"0.00006159400000","OBJECT_TYPE":"PAYLOAD","OBJECT_ID":"2020-035BJ","LAUNCH_DATE":"2020-06-04","ARG_OF_PERICENTER":"91.9678","REV_AT_EPOCH":"14812","TIME_SYSTEM":"UTC","NORAD_CAT_ID":"45713","ECCENTRICITY":"0.00013640"},{"PERIOD":"95.591","RA_OF_ASC_NODE":"70.3815","TLE_LINE1":"1 45714U 20035BK  23034.46973889  .00015576  00000-0  10616-2 0  9997","EPHEMERIS_TYPE":"0","REF_FRAME":"TEME","OBJECT_NAME":"STARLINK-1437","APOAPSIS":"548.060","DECAY_DATE":null,"CLASSIFICATION_TYPE":"U","MEAN_ANOMALY":"273.2949","FILE":"3770508","ELEMENT_SET_NO":"999","SEMIMAJOR_AXIS":"6925.275","TLE_LINE2":"2 45714  53.0530  70.3815 0001328  86.8192 273.2949 15.06423891148391","MEAN_MOTION_DOT":"0.00015576","RCS_SIZE":"LARGE","REV_AT_EPOCH":"14839","ARG_OF_PERICENTER":"86.8192","LAUNCH_DATE":"2020-06-04","OBJECT_TYPE":"PAYLOAD","OBJECT_ID":"2020-035BK","BSTAR":"0.00106160000000","INCLINATION":"53.0530","ECCENTRICITY":"0.00013280","NORAD_CAT_ID":"45714","TIME_SYSTEM":"UTC","MEAN_MOTION":"15.06423891","MEAN_MOTION_DDOT":"0.0000000000000","CENTER_NAME":"EARTH","PERIAPSIS":"546.221","MEAN_ELEMENT_THEORY":"SGP4","GP_ID":"224319365","SITE":"AFETR","EPOCH":"2023-02-03T11:16:25.440096","COUNTRY_CODE":"US"},{"COUNTRY_CODE":"US","GP_ID":"224344998","MEAN_ELEMENT_THEORY":"SGP4","SITE":"AFETR","EPOCH":"2023-02-03T16:18:57.027744","CENTER_NAME":"EARTH","PERIAPSIS":"546.401","MEAN_MOTION_DDOT":"0.0000000000000","MEAN_MOTION":"15.06388592","TIME_SYSTEM":"UTC","NORAD_CAT_ID":"45730","ECCENTRICITY":"0.00012240","BSTAR":"-0.00006132800000","INCLINATION":"53.0521","OBJECT_ID":"2020-038A","OBJECT_TYPE":"PAYLOAD","LAUNCH_DATE":"2020-06-13","ARG_OF_PERICENTER":"92.5684","REV_AT_EPOCH":"14588","MEAN_MOTION_DOT":"-0.00001194","RCS_SIZE":"LARGE","SEMIMAJOR_AXIS":"6925.384","TLE_LINE2":"2 45730  53.0521 269.4240 0001224  92.5684 267.5445 15.06388592145883","FILE":"3770748","ELEMENT_SET_NO":"999","MEAN_ANOMALY":"267.5445","CLASSIFICATION_TYPE":"U","DECAY_DATE":null,"APOAPSIS":"548.096","OBJECT_NAME":"STARLINK-1461","REF_FRAME":"TEME","TLE_LINE1":"1 45730U 20038A   23034.67982671 -.00001194  00000-0 -61328-4 0  9991","EPHEMERIS_TYPE":"0","RA_OF_ASC_NODE":"269.4240","PERIOD":"95.593"},{"COUNTRY_CODE":"US","EPOCH":"2023-02-03T16:40:10.833312","GP_ID":"224343747","SITE":"AFETR","MEAN_ELEMENT_THEORY":"SGP4","PERIAPSIS":"546.087","CENTER_NAME":"EARTH","MEAN_MOTION":"15.06393023","MEAN_MOTION_DDOT":"0.0000000000000","NORAD_CAT_ID":"45731","TIME_SYSTEM":"UTC","ECCENTRICITY":"0.00016570","OBJECT_ID":"2020-038B","OBJECT_TYPE":"PAYLOAD","INCLINATION":"53.0491","BSTAR":"-0.00001999200000","REV_AT_EPOCH":"14587","ARG_OF_PERICENTER":"88.9853","LAUNCH_DATE":"2020-06-13","TLE_LINE2":"2 45731  53.0491 269.3688 0001657  88.9853 271.1325 15.06393023145874","SEMIMAJOR_AXIS":"6925.370","RCS_SIZE":"LARGE","MEAN_MOTION_DOT":"-0.00000579","ELEMENT_SET_NO":"999","FILE":"3770748","CLASSIFICATION_TYPE":"U","MEAN_ANOMALY":"271.1325","DECAY_DATE":null,"OBJECT_NAME":"STARLINK-1465","APOAPSIS":"548.382","EPHEMERIS_TYPE":"0","TLE_LINE1":"1 45731U 20038B   23034.69456983 -.00000579  00000-0 -19992-4 0  9992","REF_FRAME":"TEME","RA_OF_ASC_NODE":"269.3688","PERIOD":"95.593"},{"MEAN_ANOMALY":"275.4566","CLASSIFICATION_TYPE":"U","DECAY_DATE":null,"MEAN_MOTION_DOT":"0.00001070","RCS_SIZE":"LARGE","SEMIMAJOR_AXIS":"6925.339","TLE_LINE2":"2 45732  53.0503 272.1011 0001295  84.6571 275.4566 15.06403211145784","FILE":"3770323","ELEMENT_SET_NO":"999","RA_OF_ASC_NODE":"272.1011","PERIOD":"95.592","OBJECT_NAME":"STARLINK-1466","APOAPSIS":"548.101","REF_FRAME":"TEME","TLE_LINE1":"1 45732U 20038C   23034.08638464  .00001070  00000-0  90703-4 0  9996","EPHEMERIS_TYPE":"0","CENTER_NAME":"EARTH","PERIAPSIS":"546.307","MEAN_MOTION_DDOT":"0.0000000000000","MEAN_MOTION":"15.06403211","COUNTRY_CODE":"US","MEAN_ELEMENT_THEORY":"SGP4","GP_ID":"224308742","SITE":"AFETR","EPOCH":"2023-02-03T02:04:23.632896","BSTAR":"0.00009070300000","INCLINATION":"53.0503","OBJECT_ID":"2020-038C","OBJECT_TYPE":"PAYLOAD","LAUNCH_DATE":"2020-06-13","ARG_OF_PERICENTER":"84.6571","REV_AT_EPOCH":"14578","TIME_SYSTEM":"UTC","NORAD_CAT_ID":"45732","ECCENTRICITY":"0.00012950"},{"ARG_OF_PERICENTER":"139.1849","LAUNCH_DATE":"2020-06-13","REV_AT_EPOCH":"14592","INCLINATION":"53.0524","BSTAR":"0.00105720000000","OBJECT_ID":"2020-038D","OBJECT_TYPE":"PAYLOAD","ECCENTRICITY":"0.00018680","TIME_SYSTEM":"UTC","NORAD_CAT_ID":"45733","MEAN_MOTION_DDOT":"0.0000000000000","MEAN_MOTION":"15.13725002","PERIAPSIS":"523.565","CENTER_NAME":"EARTH","EPOCH":"2023-02-03T15:36:15.251328","GP_ID":"224344248","SITE":"AFETR","MEAN_ELEMENT_THEORY":"SGP4","COUNTRY_CODE":"US","PERIOD":"95.130","RA_OF_ASC_NODE":"265.6412","REF_FRAME":"TEME","EPHEMERIS_TYPE":"0","TLE_LINE1":"1 45733U 20038D   23034.65017652  .00019018  00000-0  10572-2 0  9995","APOAPSIS":"526.144","OBJECT_NAME":"STARLINK-1467","DECAY_DATE":null,"MEAN_ANOMALY":"220.9284","CLASSIFICATION_TYPE":"U","ELEMENT_SET_NO":"999","FILE":"3770748","RCS_SIZE":"LARGE","MEAN_MOTION_DOT":"0.00019018","TLE_LINE2":"2 45733  53.0524 265.6412 0001868 139.1849 220.9284 15.13725002145921","SEMIMAJOR_AXIS":"6902.989"},{"ELEMENT_SET_NO":"999","FILE":"3770748","TLE_LINE2":"2 45734  53.0542 266.3435 0001800 114.0861 246.0319 15.12016832145928","SEMIMAJOR_AXIS":"6908.187","RCS_SIZE":"LARGE","MEAN_MOTION_DOT":"0.00004417","DECAY_DATE":null,"CLASSIFICATION_TYPE":"U","MEAN_ANOMALY":"246.0319","EPHEMERIS_TYPE":"0","TLE_LINE1":"1 45734U 20038E   23034.72875525  .00004417  00000-0  27117-3 0  9996","REF_FRAME":"TEME","APOAPSIS":"531.296","OBJECT_NAME":"STARLINK-1468","PERIOD":"95.237","RA_OF_ASC_NODE":"266.3435","EPOCH":"2023-02-03T17:29:24.453600","MEAN_ELEMENT_THEORY":"SGP4","GP_ID":"224344498","SITE":"AFETR","COUNTRY_CODE":"US","MEAN_MOTION":"15.12016832","MEAN_MOTION_DDOT":"0.0000000000000","PERIAPSIS":"528.809","CENTER_NAME":"EARTH","ECCENTRICITY":"0.00018000","NORAD_CAT_ID":"45734","TIME_SYSTEM":"UTC","REV_AT_EPOCH":"14592","ARG_OF_PERICENTER":"114.0861","LAUNCH_DATE":"2020-06-13","OBJECT_ID":"2020-038E","OBJECT_TYPE":"PAYLOAD","INCLINATION":"53.0542","BSTAR":"0.00027117000000"},{"CENTER_NAME":"EARTH","PERIAPSIS":"546.290","MEAN_MOTION":"15.06394343","MEAN_MOTION_DDOT":"0.0000000000000","COUNTRY_CODE":"US","MEAN_ELEMENT_THEORY":"SGP4","GP_ID":"224343249","SITE":"AFETR","EPOCH":"2023-02-03T18:36:57.337632","OBJECT_ID":"2020-038F","OBJECT_TYPE":"PAYLOAD","BSTAR":"0.00016509000000","INCLINATION":"53.0515","REV_AT_EPOCH":"14588","ARG_OF_PERICENTER":"78.6197","LAUNCH_DATE":"2020-06-13","NORAD_CAT_ID":"45735","TIME_SYSTEM":"UTC","ECCENTRICITY":"0.00013590","CLASSIFICATION_TYPE":"U","MEAN_ANOMALY":"281.4945","DECAY_DATE":null,"SEMIMAJOR_AXIS":"6925.366","TLE_LINE2":"2 45735  53.0515 269.0045 0001359  78.6197 281.4945 15.06394343145884","MEAN_MOTION_DOT":"0.00002178","RCS_SIZE":"LARGE","FILE":"3770748","ELEMENT_SET_NO":"999","RA_OF_ASC_NODE":"269.0045","PERIOD":"95.592","APOAPSIS":"548.172","OBJECT_NAME":"STARLINK-1471","TLE_LINE1":"1 45735U 20038F   23034.77566363  .00002178  00000-0  16509-3 0  9994","EPHEMERIS_TYPE":"0","REF_FRAME":"TEME"},{"ECCENTRICITY":"0.00018230","TIME_SYSTEM":"UTC","NORAD_CAT_ID":"45736","LAUNCH_DATE":"2020-06-13","ARG_OF_PERICENTER":"2.3126","REV_AT_EPOCH":"14709","INCLINATION":"53.0587","BSTAR":"0.00049770000000","OBJECT_ID":"2020-038G","OBJECT_TYPE":"PAYLOAD","EPOCH":"2023-02-03T17:36:19.671264","GP_ID":"224343498","SITE":"AFETR","MEAN_ELEMENT_THEORY":"SGP4","COUNTRY_CODE":"US","MEAN_MOTION_DDOT":"0.0000000000000","MEAN_MOTION":"15.46073684","PERIAPSIS":"426.986","CENTER_NAME":"EARTH","REF_FRAME":"TEME","EPHEMERIS_TYPE":"0","TLE_LINE1":"1 45736U 20038G   23034.73356101  .00024382  00000-0  49770-3 0  9995","APOAPSIS":"429.468","OBJECT_NAME":"STARLINK-1472","PERIOD":"93.139","RA_OF_ASC_NODE":"184.0820","ELEMENT_SET_NO":"999","FILE":"3770748","RCS_SIZE":"LARGE","MEAN_MOTION_DOT":"0.00024382","TLE_LINE2":"2 45736  53.0587 184.0820 0001823   2.3126 357.7888 15.46073684147097","SEMIMAJOR_AXIS":"6806.362","DECAY_DATE":null,"MEAN_ANOMALY":"357.7888","CLASSIFICATION_TYPE":"U"},{"ARG_OF_PERICENTER":"91.7654","LAUNCH_DATE":"2020-06-13","REV_AT_EPOCH":"14577","INCLINATION":"53.0511","BSTAR":"0.00002008900000","OBJECT_TYPE":"PAYLOAD","OBJECT_ID":"2020-038J","ECCENTRICITY":"0.00011960","TIME_SYSTEM":"UTC","NORAD_CAT_ID":"45738","MEAN_MOTION_DDOT":"0.0000000000000","MEAN_MOTION":"15.06399160","PERIAPSIS":"546.388","CENTER_NAME":"EARTH","EPOCH":"2023-02-03T00:50:05.551872","MEAN_ELEMENT_THEORY":"SGP4","GP_ID":"224309494","SITE":"AFETR","COUNTRY_CODE":"US","PERIOD":"95.592","RA_OF_ASC_NODE":"272.3331","REF_FRAME":"TEME","EPHEMERIS_TYPE":"0","TLE_LINE1":"1 45738U 20038J   23034.03478648  .00000018  00000-0  20089-4 0  9994","OBJECT_NAME":"STARLINK-1474","APOAPSIS":"548.044","DECAY_DATE":null,"MEAN_ANOMALY":"268.3472","CLASSIFICATION_TYPE":"U","ELEMENT_SET_NO":"999","FILE":"3770323","RCS_SIZE":"LARGE","MEAN_MOTION_DOT":"0.00000018","TLE_LINE2":"2 45738  53.0511 272.3331 0001196  91.7654 268.3472 15.06399160145770","SEMIMAJOR_AXIS":"6925.351"}];
